IONOSFERA-M 2           
1 61736U 24199B   26201.28112731  .00000000  00000+0  19668-4 0  9997
2 61736  98.7127  74.0075 0000691 130.4435 229.6803 14.22763091135530
PRSC-EO1                
1 62725U 25012A   26201.28992262  .00003849  00000+0  19439-3 0  9995
2 62725  97.4207 273.1001 0007124 132.2696 227.9143 15.17656836 83210
BIOMASS                 
1 63772U 25090A   26201.10461264  .00000268  00000+0  55712-4 0  9995
2 63772  98.0753  27.9408 0001431  90.8144 269.3225 14.67535772 65517
GOSAT-GW (IBUKI GW)     
1 64694U 25141A   26201.25815700  .00000298  00000+0  60885-4 0  9990
2 64694  98.0564 138.0381 0001466  84.7597 275.3775 14.67554382 56691
IONOSFERA-M 3           
1 64876U 25155A   26201.25807922  .00000013  00000+0  25381-4 0  9991
2 64876  98.6044 162.3341 0002412 104.8164 255.3281 14.21491321 51108
IONOSFERA-M 4           
1 64877U 25155B   26201.29286367  .00000010  00000+0  24175-4 0  9997
2 64877  98.6043 162.2851 0001893  94.4608 265.6786 14.21493765 51100
MICROCARB               
1 64899U 25156A   26200.76243702  .00000234  00000+0  44264-4 0  9998
2 64899  98.0072 277.4003 0017970 156.5598 203.6432 14.72887935 52764
CO3D 3                  
1 64900U 25156B   26201.23066951  .00002336  00000+0  11104-3 0  9994
2 64900  97.4329 279.4493 0001760  88.9645 271.1792 15.20193794 54556
CO3D 4                  
1 64901U 25156C   26201.16499729  .00000975  00000+0  48151-4 0  9990
2 64901  97.4335 279.3838 0001977 144.0151 216.1218 15.20212011 54547
CO3D 2                  
1 64902U 25156D   26201.26330315  .00002225  00000+0  10588-3 0  9999
2 64902  97.4332 279.3798 0001173  91.8574 268.2796 15.20199954 54556
CO3D 1                  
1 64903U 25156E   26201.26345732  .00002264  00000+0  10767-3 0  9991
2 64903  97.4330 279.3800 0001326 102.4436 257.6948 15.20201919 54551
PRSC-S1                 
1 65055U 25164A   26201.07857267  .00002490  00000+0  17664-3 0  9993
2 65055  41.1302 102.5340 0007392 227.4280 132.5910 15.06659713 53399
SENTINEL-6B             
1 66514U 25264A   26201.03387463 -.00000055  00000+0  27006-4 0  9995
2 66514  66.0411  66.9563 0007843 268.5919  91.4198 12.80930268 31374
CAS500-3                
1 66655U 25274F   26201.22491433  .00000651  00000+0  76098-4 0  9992
2 66655  97.7433 128.5246 0005851  23.8004 336.3483 14.88390499 35066
CSG-3                   
1 67304U 26001A   26201.07667640  .00000131  00000+0  23001-4 0  9990
2 67304  97.8898  24.2039 0001475  93.3218 266.8164 14.82165261 29330
PRSC-E03                
1 68835U 26092A   26201.25779161  .00001075  00000+0  78065-4 0  9990
2 68835  38.0005 254.6469 0005018 282.0650  77.9549 15.06821342 12940
CAS500-2                
1 69013U 26100AK  26200.98815032  .00002985  00000+0  14265-3 0  9998
2 69013  97.3850  98.2112 0008070 233.6366 126.4124 15.19754796 11792
