OBJECT_NAME,OBJECT_ID,EPOCH,MEAN_MOTION,ECCENTRICITY,INCLINATION,RA_OF_ASC_NODE,ARG_OF_PERICENTER,MEAN_ANOMALY,EPHEMERIS_TYPE,CLASSIFICATION_TYPE,NORAD_CAT_ID,ELEMENT_SET_NO,REV_AT_EPOCH,BSTAR,MEAN_MOTION_DOT,MEAN_MOTION_DDOT
IONOSFERA-M 2,2024-199B,2026-07-20T06:44:49.399584,14.22763091,.00006919,98.7127,74.0075,130.4435,229.6803,0,U,61736,999,13553,.19667736E-4,0,0
PRSC-EO1,2025-012A,2026-07-20T06:57:29.314368,15.17656836,.00071247,97.4207,273.1001,132.2696,227.9143,0,U,62725,999,8321,.19438654E-3,.3849E-4,0
BIOMASS,2025-090A,2026-07-20T02:30:38.532096,14.67535772,.00014319,98.0753,27.9408,90.8144,269.3225,0,U,63772,999,6551,.55711566E-4,.268E-5,0
GOSAT-GW (IBUKI GW),2025-141A,2026-07-20T06:11:44.764800,14.67554382,.0001466,98.0564,138.0381,84.7597,275.3775,0,U,64694,999,5669,.60884643E-4,.298E-5,0
IONOSFERA-M 3,2025-155A,2026-07-20T06:11:38.044608,14.21491321,.00024125,98.6044,162.3341,104.8164,255.3281,0,U,64876,999,5110,.25381417E-4,.13E-6,0
IONOSFERA-M 4,2025-155B,2026-07-20T07:01:43.421088,14.21493765,.00018934,98.6043,162.2851,94.4608,265.6786,0,U,64877,999,5110,.24174971E-4,.1E-6,0
MICROCARB,2025-156A,2026-07-19T18:17:54.558528,14.72887935,.00179706,98.0072,277.4003,156.5598,203.6432,0,U,64899,999,5276,.44263644E-4,.234E-5,0
CO3D 3,2025-156B,2026-07-20T05:32:09.845664,15.20193794,.00017602,97.4329,279.4493,88.9645,271.1792,0,U,64900,999,5455,.11103632E-3,.2336E-4,0
CO3D 4,2025-156C,2026-07-20T03:57:35.765856,15.20212011,.00019777,97.4335,279.3838,144.0151,216.1218,0,U,64901,999,5454,.4815127E-4,.975E-5,0
CO3D 2,2025-156D,2026-07-20T06:19:09.392160,15.20199954,.00011731,97.4332,279.3798,91.8574,268.2796,0,U,64902,999,5455,.10588094E-3,.2225E-4,0
CO3D 1,2025-156E,2026-07-20T06:19:22.712448,15.20201919,.00013261,97.4330,279.3800,102.4436,257.6948,0,U,64903,999,5455,.10766944E-3,.2264E-4,0
PRSC-S1,2025-164A,2026-07-20T01:53:08.678688,15.06659713,.00073926,41.1302,102.5340,227.4280,132.5910,0,U,65055,999,5339,.17663918E-3,.249E-4,0
SENTINEL-6B,2025-264A,2026-07-20T00:48:46.768032,12.80930268,.00078432,66.0411,66.9563,268.5919,91.4198,0,U,66514,999,3137,.27005698E-4,-.55E-6,0
CAS500-3,2025-274F,2026-07-20T05:23:52.598112,14.88390499,.00058515,97.7433,128.5246,23.8004,336.3483,0,U,66655,999,3506,.76097517E-4,.651E-5,0
CSG-3,2026-001A,2026-07-20T01:50:24.840960,14.82165261,.00014756,97.8898,24.2039,93.3218,266.8164,0,U,67304,999,2933,.23000932E-4,.131E-5,0
PRSC-E03,2026-092A,2026-07-20T06:11:13.195104,15.06821342,.00050188,38.0005,254.6469,282.0650,77.9549,0,U,68835,999,1294,.78065327E-4,.1075E-4,0
CAS500-2,2026-100AK,2026-07-19T23:42:56.187648,15.19754796,.00080705,97.3850,98.2112,233.6366,126.4124,0,U,69013,999,1179,.14264617E-3,.2985E-4,0
